[{"OBJECT_NAME":"NOAA 18","OBJECT_ID":"2005-018A","EPOCH":"2026-04-14T05:05:55.133952","MEAN_MOTION":14.13718034,"ECCENTRICITY":0.0013711,"INCLINATION":98.8117,"RA_OF_ASC_NODE":184.8145,"ARG_OF_PERICENTER":336.9035,"MEAN_ANOMALY":23.152,"EPHEMERIS_TYPE":0,"CLASSIFICATION_TYPE":"U","NORAD_CAT_ID":28654,"ELEMENT_SET_NO":999,"REV_AT_EPOCH":7727,"BSTAR":3.3765712e-5,"MEAN_MOTION_DOT":2.0e-7,"MEAN_MOTION_DDOT":0},{"OBJECT_NAME":"NOAA 19","OBJECT_ID":"2009-005A","EPOCH":"2026-04-14T06:29:54.360384","MEAN_MOTION":14.13463849,"ECCENTRICITY":0.0013334,"INCLINATION":98.9549,"RA_OF_ASC_NODE":175.0905,"ARG_OF_PERICENTER":207.0798,"MEAN_ANOMALY":152.968,"EPHEMERIS_TYPE":0,"CLASSIFICATION_TYPE":"U","NORAD_CAT_ID":33591,"ELEMENT_SET_NO":999,"REV_AT_EPOCH":88545,"BSTAR":3.7002411e-5,"MEAN_MOTION_DOT":2.5e-7,"MEAN_MOTION_DDOT":0},{"OBJECT_NAME":"SUOMI NPP","OBJECT_ID":"2011-061A","EPOCH":"2026-04-14T06:26:28.343040","MEAN_MOTION":14.19503332,"ECCENTRICITY":0.00024297,"INCLINATION":98.7913,"RA_OF_ASC_NODE":45.5965,"ARG_OF_PERICENTER":125.1646,"MEAN_ANOMALY":234.9758,"EPHEMERIS_TYPE":0,"CLASSIFICATION_TYPE":"U","NORAD_CAT_ID":37849,"ELEMENT_SET_NO":999,"REV_AT_EPOCH":74937,"BSTAR":3.5882216e-5,"MEAN_MOTION_DOT":3.1e-7,"MEAN_MOTION_DDOT":0},{"OBJECT_NAME":"NOAA 20 (JPSS-1)","OBJECT_ID":"2017-073A","EPOCH":"2026-04-14T05:05:02.833440","MEAN_MOTION":14.19545296,"ECCENTRICITY":0.00021438,"INCLINATION":98.7733,"RA_OF_ASC_NODE":44.2552,"ARG_OF_PERICENTER":89.3085,"MEAN_ANOMALY":270.8337,"EPHEMERIS_TYPE":0,"CLASSIFICATION_TYPE":"U","NORAD_CAT_ID":43013,"ELEMENT_SET_NO":999,"REV_AT_EPOCH":43539,"BSTAR":3.5078092e-5,"MEAN_MOTION_DOT":3.0e-7,"MEAN_MOTION_DDOT":0}]
