NOAA 18                 
1 28654U 05018A   26104.21244368  .00000020  00000+0  33766-4 0  9992
2 28654  98.8117 184.8145 0013711 336.9035  23.1520 14.13718034 77272
NOAA 19                 
1 33591U 09005A   26104.27076806  .00000025  00000+0  37002-4 0  9996
2 33591  98.9549 175.0905 0013334 207.0798 152.9680 14.13463849885455
SUOMI NPP               
1 37849U 11061A   26104.26838360  .00000031  00000+0  35882-4 0  9992
2 37849  98.7913  45.5965 0002429 125.1646 234.9758 14.19503332749375
NOAA 20 (JPSS-1)        
1 43013U 17073A   26104.21183835  .00000030  00000+0  35078-4 0  9992
2 43013  98.7733  44.2552 0002143  89.3085 270.8337 14.19545296435395
